#aV2022 12  6  0  0  0.00000000     288 DD+AD WGS84 FIT  NGA
## 2239 172800.00000000   300.00000000 59919 0.0000000000000
+   31     1  2  3  4  5  6  7  8  9 10 11 12 13 14 15 16 17
+         18 19 20 21 22 23 24 25 26 27 29 30 31 32  0  0  0
+          0  0  0  0  0  0  0  0  0  0  0  0  0  0  0  0  0
+          0  0  0  0  0  0  0  0  0  0  0  0  0  0  0  0  0
+          0  0  0  0  0  0  0  0  0  0  0  0  0  0  0  0  0
++         2  2  2  2  2  2  2  2  2  2  2  2  2  2  2  2  2
++         2  2  2  2  2  2  2  2  2  2  2  2  2  2  0  0  0
++         0  0  0  0  0  0  0  0  0  0  0  0  0  0  0  0  0
++         0  0  0  0  0  0  0  0  0  0  0  0  0  0  0  0  0
++         0  0  0  0  0  0  0  0  0  0  0  0  0  0  0  0  0
%c cc cc ccc ccc cccc cccc cccc cccc ccccc ccccc ccccc ccccc
%c cc cc ccc ccc cccc cccc cccc cccc ccccc ccccc ccccc ccccc
%f  0.0000000  0.000000000  0.00000000000  0.000000000000000
%f  0.0000000  0.000000000  0.00000000000  0.000000000000000
%i    0    0    0    0      0      0      0      0         0
%i    0    0    0    0      0      0      0      0         0
/*      NGA, ST. LOUIS,MO.                                  
/*   EPHEMERIS COMPUTED FROM 2 DAYS OF DATA                 
/*   EPOCHA v8 SMOOTHER                                     
/*   G2139 IERS2010 SATIGS SATAPC                           
*  2022 12  6 14 10  0.00000000
P  1 -13075.506389  13509.225513  18303.700421    241.492780                    
V  1    446.228240 -23979.519508  18048.983122     -0.053241                    
P  2  10870.364910 -17464.629655 -16282.147464   -634.409686                    
V  2   2249.300549  21741.386396 -20813.318145      0.019350                    
P  3 -23363.480679  12479.413446  -1011.625548   -375.118470                    
V  3  -2089.975358  -1630.985129  32144.103210     -0.004621                    
P  4 -16444.298249   5562.733296 -20129.764540    -73.563149                    
V  4 -20245.296755 -15590.554944  12124.415652      0.070170                    
P  5  23485.740507  -3390.052468 -12222.440432   -107.036024                    
V  5 -12237.220875   9267.603000 -26342.650418     -0.014467                    
P  6   6481.948280  22662.478807 -12090.694229    534.490130                    
V  6  -2717.159469  15302.602622  27148.779614      0.081102                    
P  7  -6321.563822  24521.360843  -6692.708951    278.163978                    
V  7  -2902.248789  -9383.220027 -30251.801692     -0.052041                    
P  8 -22979.812341  -3510.305086  13139.460146    -97.310323                    
V  8 -13039.504108 -10487.624534 -25151.911239     -0.019009                    
P  9  -5473.490303  14600.563347 -21578.191954   -257.736547                    
V  9 -23257.551436 -14176.819186  -3751.816057      0.059829                    
P 10  -1148.128434 -15695.715026  21505.935111    -14.935910                    
V 10  24343.374331 -11556.541946  -7495.857602     -0.016568                    
P 11  12524.716941  12321.373054 -19921.371808    -51.945336                    
V 11  -3889.657971  25015.452751  12983.767262     -0.069907                    
P 12  24348.905363 -10465.892456   -429.725747   -312.726529                    
V 12   1240.388929   2402.173622  31967.356443     -0.045146                    
P 13  22268.192184  12114.704517   8064.075043    437.261230                    
V 13   6344.628579   8574.330084 -29567.550885      0.066422                    
P 14  -1778.822310  16859.525513  20424.925250    -72.508787                    
V 14 -24061.685596   9866.635334 -10359.356629      0.060190                    
P 15  23252.313693    736.630524  12616.815964     -6.383253                    
V 15  13786.530366   9878.830156 -24817.801827      0.032193                    
P 16 -21943.103400  -2695.943809 -15340.787781   -526.471510                    
V 16  16908.922987  -8286.393290 -22709.235505      0.004181                    
P 17   7226.844160  19613.213385  16780.911048    683.756181                    
V 17 -17238.260935 -11135.569009  21074.144105      0.030719                    
P 18   5316.771232 -25482.505044  -4874.798307    -48.769212                    
V 18   2002.593855   6384.672964 -31312.758165     -0.144507                    
P 19  16796.312721  19603.241584   6581.962885    246.913981                    
V 19  -7953.170447  -3852.003130  30435.439857      0.050774                    
P 20  16233.207766   6063.096602 -20048.804995    465.356157                    
V 20 -19954.691348  16113.164328 -11494.652034     -0.024859                    
P 21 -15235.038148   3834.445049  21943.145631    154.476239                    
V 21  -1329.294069 -26509.125892   4581.186186     -0.008618                    
P 22 -18413.070491 -18753.079150   4872.000057    379.181121                    
V 22   5987.836274   1479.027175  30862.887046      0.077956                    
P 23  10600.615324 -18190.456879  16101.425513     -0.322467                    
V 23  18874.456693  -8153.783420 -21768.082427      0.005322                    
P 24  14390.705063  -9466.576751  19770.174715     27.947673                    
V 24   2223.413945  26022.098312  11078.737368     -0.170048                    
P 25  18188.778848 -16849.316809  -9422.671197    399.496570                    
V 25  11660.099558  -2783.357119  28663.404040      0.036000                    
P 26 -13257.737425 -10054.494836 -20856.183169    237.752523                    
V 26  22375.454501 -13824.485535  -7259.478516      0.009468                    
P 27 -23315.406238 -12766.687824   3040.817607    160.314256                    
V 27  -2218.738384  -4069.885234 -31379.032283     -0.100945                    
P 29   8404.659577 -12258.724078 -22051.293598   -572.170853                    
V 29  22103.646047  16939.418880  -1071.100118     -0.025706                    
P 30   1610.321828  25971.329894   4679.002234   -535.824643                    
V 30  -4148.790597   5617.054394 -30586.074629      0.005848                    
P 31  -7811.400316 -21380.686935 -13451.773280   -202.432336                    
V 31   4023.683640 -16742.733442  25021.760416     -0.011834                    
P 32 -11344.212995 -19409.653705  14451.743245   -320.338990                    
V 32  16212.986067   8102.194967  23663.898275     -0.130392                    
EOF
